0 COSMOS 2116
1 21030U 90114C   13282.36744150  .00000040  00000-0  16042-3 0  9986
2 21030 082.5714 295.8666 0005273 176.9585 311.7733 12.64217619 52129
0 COSMOS 2116
1 21030U 90114C   13284.50992137  .00000048  00000-0  20396-3 0  9990
2 21030 082.5711 294.4933 0005371 172.2747 342.4064 12.64217925 52393
0 COSMOS 2116
1 21030U 90114C   13286.78454498  .00000027  00000-0  90949-4 0    07
2 21030 082.5709 293.0351 0005472 167.3931 254.3490 12.64218325 52682
0 COSMOS 2116
1 21030U 90114C   13289.08979588 -.00000006  00000-0 -90042-4 0    19
2 21030 082.5711 291.5571 0005533 162.4106 305.7147 12.64218532 52972
0 COSMOS 2116
1 21030U 90114C   13291.47426157  .00000014  00000-0  18125-4 0    24
2 21030 082.5715 290.0283 0005658 157.6831 357.1710 12.64218564 53275
0 COSMOS 2116
1 21030U 90114C   13293.74885407  .00000023  00000-0  66392-4 0    33
2 21030 082.5717 288.5702 0005744 153.0894 268.6893 12.64218299 53565
0 COSMOS 2116
1 21030U 90114C   13296.13539068  .00000041  00000-0  16751-3 0    42
2 21030 082.5717 287.0405 0005819 148.3982 329.5274 12.64218298 53869
